[{"OBJECT_NAME":"STARLINK-1892","OBJECT_ID":"2020-074E","EPOCH":"2026-03-09T22:16:43.903488","MEAN_MOTION":15.50597372,"ECCENTRICITY":0.0004541,"INCLINATION":53.0467,"RA_OF_ASC_NODE":292.3712,"ARG_OF_PERICENTER":97.7841,"MEAN_ANOMALY":262.3683,"EPHEMERIS_TYPE":0,"CLASSIFICATION_TYPE":"U","NORAD_CAT_ID":46743,"ELEMENT_SET_NO":999,"REV_AT_EPOCH":29711,"BSTAR":0.0020777794,"MEAN_MOTION_DOT":0.0012244,"MEAN_MOTION_DDOT":0},{"OBJECT_NAME":"STARLINK-34110","OBJECT_ID":"2025-092H","EPOCH":"2026-03-09T22:00:01.999584","MEAN_MOTION":15.4924714,"ECCENTRICITY":0.00181269,"INCLINATION":42.9979,"RA_OF_ASC_NODE":165.6091,"ARG_OF_PERICENTER":24.4978,"MEAN_ANOMALY":20.6229,"EPHEMERIS_TYPE":0,"CLASSIFICATION_TYPE":"U","NORAD_CAT_ID":63811,"ELEMENT_SET_NO":999,"REV_AT_EPOCH":578,"BSTAR":0.003973099,"MEAN_MOTION_DOT":0.00229974,"MEAN_MOTION_DDOT":0}]
